NORAD_CAT_ID,OBJECT_NAME,OBJECT_TYPE,EPOCH,MEAN_MOTION,ECCENTRICITY,INCLINATION,RA_OF_ASC_NODE,ARG_OF_PERICENTER,MEAN_ANOMALY,BSTAR,MEAN_MOTION_DOT,MEAN_MOTION_DDOT,TLE_LINE0,TLE_LINE1,TLE_LINE2,SEMIMAJOR_AXIS,PERIOD,APOGEE,PERIGEE,DECAYED
54184.0,STARLINK-5162,PAYLOAD,2023-09-14 20:48:59,15.08834175,0.0001338,53.2162,114.6213,94.6057,265.5088,-0.00010814,-2.008e-05,0.0,0 STARLINK-5162,1 54184U 22141AD  23257.86736039 -.00002008  00000-0 -10814-3 0  9992,2 54184  53.2162 114.6213 0001338  94.6057 265.5088 15.08834175 48960,6917.898,95.438,540.689,538.838,0.0
54184.0,STARLINK-5162,PAYLOAD,2023-09-15 17:29:00,15.08842873,0.0001345,53.216,110.7557,92.9865,267.1282,7.7882e-05,9.52e-06,0.0,0 STARLINK-5162,1 54184U 22141AD  23258.72847855  .00000952  00000-0  77882-4 0  9990,2 54184  53.2160 110.7557 0001345  92.9865 267.1282 15.08842873 49321,6917.872,95.437,540.667,538.806,0.0
54184.0,STARLINK-5162,PAYLOAD,2023-09-15 23:50:32,15.08852364,0.0001414,53.2161,109.5654,85.4409,274.6744,0.00022435,3.286e-05,0.0,0 STARLINK-5162,1 54184U 22141AD  23258.99343424  .00003286  00000-0  22435-3 0  9998,2 54184  53.2161 109.5654 0001414  85.4409 274.6744 15.08852364 49360,6917.843,95.437,540.686,538.729,0.0
54184.0,STARLINK-5162,PAYLOAD,2023-09-16 17:19:47,15.08841457,0.0001409,53.2159,106.2947,83.4444,276.6709,0.00025874,3.832e-05,0.0,0 STARLINK-5162,1 54184U 22141AD  23259.72208308  .00003832  00000-0  25874-3 0  9998,2 54184  53.2159 106.2947 0001409  83.4444 276.6709 15.08841457 49473,6917.876,95.437,540.716,538.766,0.0
54184.0,STARLINK-5162,PAYLOAD,2023-09-16 23:41:20,15.08847172,0.0001426,53.2157,105.1047,89.2327,270.8828,0.0003105,4.658e-05,0.0,0 STARLINK-5162,1 54184U 22141AD  23259.98704093  .00004658  00000-0  31050-3 0  9998,2 54184  53.2157 105.1047 0001426  89.2327 270.8828 15.08847172 49280,6917.858,95.437,540.71,538.737,0.0
54184.0,STARLINK-5162,PAYLOAD,2023-09-17 18:45:58,15.08835372,0.0001428,53.2158,101.5352,90.6635,269.4521,-4.9935e-05,-1.082e-05,0.0,0 STARLINK-5162,1 54184U 22141AD  23260.78192725 -.00001082  00000-0 -49935-4 0  9993,2 54184  53.2158 101.5352 0001428  90.6635 269.4521 15.08835372 49632,6917.895,95.438,540.747,538.772,0.0
54184.0,STARLINK-5162,PAYLOAD,2023-09-18 05:53:40,15.0884121,0.0001333,53.2158,99.4543,88.2712,271.8433,5.7633e-05,6.29e-06,0.0,0 STARLINK-5162,1 54184U 22141AD  23261.24560461  .00000629  00000-0  57633-4 0  9999,2 54184  53.2158  99.4543 0001333  88.2712 271.8433 15.08841210 49472,6917.877,95.437,540.664,538.82,0.0
54184.0,STARLINK-5162,PAYLOAD,2023-09-18 17:01:22,15.08843777,0.000128,53.2159,97.3728,88.6892,271.4247,0.00016498,2.339e-05,0.0,0 STARLINK-5162,1 54184U 22141AD  23261.70928489  .00002339  00000-0  16498-3 0  9991,2 54184  53.2159  97.3728 0001280  88.6892 271.4247 15.08843777 49771,6917.869,95.437,540.619,538.848,0.0
54184.0,STARLINK-5162,PAYLOAD,2023-09-18 20:12:08,15.08850669,0.0001268,53.2157,96.7798,91.5332,268.5805,0.00027934,4.162e-05,0.0,0 STARLINK-5162,1 54184U 22141AD  23261.84176204  .00004162  00000-0  27934-3 0  9999,2 54184  53.2157  96.7798 0001268  91.5332 268.5805 15.08850669 49569,6917.848,95.437,540.59,538.836,0.0
54184.0,STARLINK-5162,PAYLOAD,2023-09-19 18:27:31,15.08849905,0.0001255,53.216,92.617,92.8395,267.2741,0.00019667,2.844e-05,0.0,0 STARLINK-5162,1 54184U 22141AD  23262.76911960  .00002844  00000-0  19667-3 0  9996,2 54184  53.2160  92.6170 0001255  92.8395 267.2741 15.08849905 49938,6917.85,95.437,540.583,538.847,0.0
54184.0,STARLINK-5162,PAYLOAD,2023-09-19 23:13:40,15.0885871,0.0001278,53.2165,91.725,92.7116,267.4022,0.00032843,4.946e-05,0.0,0 STARLINK-5162,1 54184U 22141AD  23262.96783475  .00004946  00000-0  32843-3 0  9992,2 54184  53.2165  91.7250 0001278  92.7116 267.4022 15.08858710 49968,6917.823,95.436,540.572,538.804,0.0
54184.0,STARLINK-5162,PAYLOAD,2023-09-20 18:18:19,15.08832354,0.0001367,53.2165,88.1578,97.3221,262.7927,-0.00017732,-3.108e-05,0.0,0 STARLINK-5162,1 54184U 22141AD  23263.76272584 -.00003108  00000-0 -17732-3 0  9996,2 54184  53.2165  88.1578 0001367  97.3221 262.7927 15.08832354 50081,6917.904,95.438,540.714,538.823,0.0
54184.0,STARLINK-5162,PAYLOAD,2023-09-20 21:29:06,15.08832521,0.0001388,53.2169,87.5633,93.8052,266.3099,-0.0001333,-2.408e-05,0.0,0 STARLINK-5162,1 54184U 22141AD  23263.89520887 -.00002408  00000-0 -13330-3 0  9994,2 54184  53.2169  87.5633 0001388  93.8052 266.3099 15.08832521 49877,6917.903,95.438,540.728,538.808,0.0
54184.0,STARLINK-5162,PAYLOAD,2023-09-21 05:26:01,15.0883696,0.0001364,53.2169,86.0759,88.4817,271.6332,-1.2387e-05,-4.85e-06,0.0,0 STARLINK-5162,1 54184U 22141AD  23264.22640820 -.00000485  00000-0 -12387-4 0  9997,2 54184  53.2169  86.0759 0001364  88.4817 271.6332 15.08836960 49929,6917.89,95.438,540.698,538.811,0.0
54184.0,STARLINK-5162,PAYLOAD,2023-09-21 18:09:06,15.0884535,0.0001272,53.2165,83.6952,89.682,270.4318,0.00010561,1.394e-05,0.0,0 STARLINK-5162,1 54184U 22141AD  23264.75632452  .00001394  00000-0  10561-3 0  9996,2 54184  53.2165  83.6952 0001272  89.6820 270.4318 15.08845350 50238,6917.864,95.437,540.609,538.849,0.0
54184.0,STARLINK-5162,PAYLOAD,2023-09-21 21:19:52,15.08849743,0.0001405,53.2169,83.0985,104.2829,255.8319,0.00019232,2.775e-05,0.0,0 STARLINK-5162,1 54184U 22141AD  23264.88880261  .00002775  00000-0  19232-3 0  9991,2 54184  53.2169  83.0985 0001405 104.2829 255.8319 15.08849743 50028,6917.851,95.437,540.688,538.744,0.0
54184.0,STARLINK-5162,PAYLOAD,2023-09-22 11:38:21,15.08840254,0.0001315,53.2164,80.4234,91.671,268.4432,0.0002402,3.537e-05,0.0,0 STARLINK-5162,1 54184U 22141AD  23265.48496948  .00003537  00000-0  24020-3 0  9991,2 54184  53.2164  80.4234 0001315  91.6710 268.4432 15.08840254 50113,6917.88,95.438,540.654,538.835,0.0
54184.0,STARLINK-5162,PAYLOAD,2023-09-22 17:59:53,15.08847653,0.0001323,53.2161,79.2357,86.3599,273.7544,0.00034104,5.145e-05,0.0,0 STARLINK-5162,1 54184U 22141AD  23265.74992687  .00005145  00000-0  34104-3 0  9992,2 54184  53.2161  79.2357 0001323  86.3599 273.7544 15.08847653 50389,6917.857,95.437,540.637,538.807,0.0
54184.0,STARLINK-5162,PAYLOAD,2023-09-23 05:07:35,15.08843815,0.0001357,53.2163,77.1536,87.9342,272.1805,0.00015421,2.167e-05,0.0,0 STARLINK-5162,1 54184U 22141AD  23266.21360699  .00002167  00000-0  15421-3 0  9999,2 54184  53.2163  77.1536 0001357  87.9342 272.1805 15.08843815 50454,6917.869,95.437,540.672,538.795,0.0
54184.0,STARLINK-5162,PAYLOAD,2023-09-24 11:19:55,15.08844644,0.0001571,53.2168,71.504,86.7616,273.3556,0.00034976,5.284e-05,0.0,0 STARLINK-5162,1 54184U 22141AD  23267.47216882  .00005284  00000-0  34976-3 0  9991,2 54184  53.2168  71.5040 0001571  86.7616 273.3556 15.08844644 50644,6917.866,95.437,540.818,538.644,0.0
54184.0,STARLINK-5162,PAYLOAD,2023-09-24 14:30:41,15.08846394,0.0001575,53.2166,70.9092,86.7214,273.3959,0.00040045,6.092e-05,0.0,0 STARLINK-5162,1 54184U 22141AD  23267.60464834  .00006092  00000-0  40045-3 0  9990,2 54184  53.2166  70.9092 0001575  86.7214 273.3959 15.08846394 50438,6917.861,95.437,540.815,538.636,0.0
54184.0,STARLINK-5162,PAYLOAD,2023-09-24 20:52:13,15.08853431,0.0001542,53.2174,69.7186,88.2361,271.8808,0.00043432,6.633e-05,0.0,0 STARLINK-5162,1 54184U 22141AD  23267.86960501  .00006633  00000-0  43432-3 0  9994,2 54184  53.2174  69.7186 0001542  88.2361 271.8808 15.08853431 50471,6917.839,95.437,540.771,538.638,0.0
54184.0,STARLINK-5162,PAYLOAD,2023-09-24 22:27:36,15.08857401,0.000155,53.2173,69.4215,87.7742,272.3427,0.00052439,8.071e-05,0.0,0 STARLINK-5162,1 54184U 22141AD  23267.93584357  .00008071  00000-0  52439-3 0  9998,2 54184  53.2173  69.4215 0001550  87.7742 272.3427 15.08857401 50717,6917.827,95.436,540.764,538.62,0.0
54184.0,STARLINK-5162,PAYLOAD,2023-09-25 11:10:42,15.08843189,0.0001512,53.2175,67.0422,91.425,268.6915,0.00016875,2.399e-05,0.0,0 STARLINK-5162,1 54184U 22141AD  23268.46576789  .00002399  00000-0  16875-3 0  9998,2 54184  53.2175  67.0422 0001512  91.4250 268.6915 15.08843189 50568,6917.871,95.437,540.782,538.69,0.0
54184.0,STARLINK-5162,PAYLOAD,2023-09-25 17:32:14,15.08858215,0.0001555,53.2176,65.8538,91.4134,268.7037,0.00059497,9.198e-05,0.0,0 STARLINK-5162,1 54184U 22141AD  23268.73072390  .00009198  00000-0  59497-3 0  9998,2 54184  53.2176  65.8538 0001555  91.4134 268.7037 15.08858215 50833,6917.825,95.436,540.765,538.614,0.0
54184.0,STARLINK-5162,PAYLOAD,2023-09-25 20:43:00,15.08863696,0.0001477,53.2174,65.2581,90.7512,269.3649,0.00096488,0.00015111,0.0,0 STARLINK-5162,1 54184U 22141AD  23268.86320209  .00015111  00000-0  96488-3 0  9990,2 54184  53.2174  65.2581 0001477  90.7512 269.3649 15.08863696 50620,6917.808,95.436,540.695,538.651,0.0
54184.0,STARLINK-5162,PAYLOAD,2023-09-25 22:18:23,15.088683,0.0001537,53.2175,64.9606,90.8372,269.2796,0.0011148,0.00017512,0.0,0 STARLINK-5162,1 54184U 22141AD  23268.92944074  .00017512  00000-0  11148-2 0  9995,2 54184  53.2175  64.9606 0001537  90.8372 269.2796 15.08868300 50862,6917.794,95.436,540.722,538.596,0.0
54184.0,STARLINK-5162,PAYLOAD,2023-09-26 14:12:15,15.08834653,0.0001415,53.2174,61.9865,107.5484,252.5663,0.00038437,5.834e-05,0.0,0 STARLINK-5162,1 54184U 22141AD  23269.59184941  .00005834  00000-0  38437-3 0  9993,2 54184  53.2174  61.9865 0001415 107.5484 252.5663 15.08834653 50738,6917.897,95.438,540.741,538.783,0.0
54184.0,STARLINK-5162,PAYLOAD,2023-09-26 15:47:38,15.08834534,0.0001529,53.2172,61.6895,101.5032,258.6132,0.00064563,0.00010001,0.0,0 STARLINK-5162,1 54184U 22141AD  23269.65809022  .00010001  00000-0  64563-3 0  9995,2 54184  53.2172  61.6895 0001529 101.5032 258.6132 15.08834534 50977,6917.897,95.438,540.82,538.704,0.0
54184.0,STARLINK-5162,PAYLOAD,2023-09-27 10:52:16,15.08845518,0.0001478,53.2171,58.1214,101.7583,258.3575,0.00082492,0.00012867,0.0,0 STARLINK-5162,1 54184U 22141AD  23270.45297315  .00012867  00000-0  82492-3 0  9994,2 54184  53.2171  58.1214 0001478 101.7583 258.3575 15.08845518 50868,6917.864,95.437,540.751,538.706,0.0
